[{"OBJECT_NAME":"STARLINK-30318","OBJECT_ID":"2023-129P","EPOCH":"2026-03-09T03:35:34.476576","MEAN_MOTION":15.26722511,"ECCENTRICITY":0.00020385,"INCLINATION":43.0042,"RA_OF_ASC_NODE":120.6342,"ARG_OF_PERICENTER":287.9745,"MEAN_ANOMALY":72.0885,"EPHEMERIS_TYPE":0,"CLASSIFICATION_TYPE":"U","NORAD_CAT_ID":57711,"ELEMENT_SET_NO":999,"REV_AT_EPOCH":14046,"BSTAR":-0.00022185623,"MEAN_MOTION_DOT":-6.203e-5,"MEAN_MOTION_DDOT":0},{"OBJECT_NAME":"TIANMU-1 22","OBJECT_ID":"2023-208D","EPOCH":"2026-03-09T22:39:05.738688","MEAN_MOTION":15.29457749,"ECCENTRICITY":0.00031332,"INCLINATION":97.4379,"RA_OF_ASC_NODE":184.9419,"ARG_OF_PERICENTER":351.9312,"MEAN_ANOMALY":8.1877,"EPHEMERIS_TYPE":0,"CLASSIFICATION_TYPE":"U","NORAD_CAT_ID":58663,"ELEMENT_SET_NO":999,"REV_AT_EPOCH":12215,"BSTAR":0.00038239675,"MEAN_MOTION_DOT":0.00010851,"MEAN_MOTION_DDOT":0}]
